start=new Date('2023-02-07T00:00:00.000Z').valueOf();
sats=[{"REV_AT_EPOCH":"10269","ARG_OF_PERICENTER":"90.2841","TLE_LINE2":"2 48111  53.0532 181.0325 0001244  90.2841 269.8290 15.06405587102695","OBJECT_ID":"2021-027V","TLE_LINE1":"1 48111U 21027V   23037.65943554  .00000934  00000-0  81605-4 0  9993","OBJECT_NAME":"STARLINK-2448","CENTER_NAME":"EARTH","TIME_SYSTEM":"UTC","LAUNCH_DATE":"2021-04-07","MEAN_MOTION_DDOT":"0.0000000000000","GP_ID":"224649845","ECCENTRICITY":"0.00012440","NORAD_CAT_ID":"48111","MEAN_MOTION":"15.06405587","RCS_SIZE":"LARGE","CLASSIFICATION_TYPE":"U","EPOCH":"2023-02-06T15:49:35.230656","OBJECT_TYPE":"PAYLOAD","MEAN_ELEMENT_THEORY":"SGP4","RA_OF_ASC_NODE":"181.0325","INCLINATION":"53.0532","EPHEMERIS_TYPE":"0","APOAPSIS":"548.058","REF_FRAME":"TEME","PERIOD":"95.592","COUNTRY_CODE":"US","BSTAR":"0.00008160500000","PERIAPSIS":"546.335","MEAN_ANOMALY":"269.8290","ELEMENT_SET_NO":"999","SITE":"AFETR","SEMIMAJOR_AXIS":"6925.331","FILE":"3776034","MEAN_MOTION_DOT":"0.00000934","DECAY_DATE":null},{"COUNTRY_CODE":"US","PERIOD":"95.592","BSTAR":"0.00011749000000","MEAN_ANOMALY":"268.4394","PERIAPSIS":"546.409","ELEMENT_SET_NO":"999","SITE":"AFETR","SEMIMAJOR_AXIS":"6925.332","FILE":"3776034","MEAN_MOTION_DOT":"0.00001469","DECAY_DATE":null,"RCS_SIZE":"LARGE","CLASSIFICATION_TYPE":"U","EPOCH":"2023-02-06T20:26:17.039040","OBJECT_TYPE":"PAYLOAD","RA_OF_ASC_NODE":"195.3608","MEAN_ELEMENT_THEORY":"SGP4","INCLINATION":"53.0518","EPHEMERIS_TYPE":"0","REF_FRAME":"TEME","APOAPSIS":"547.984","OBJECT_ID":"2021-027W","TLE_LINE1":"1 48112U 21027W   23037.85158610  .00001469  00000-0  11749-3 0  9992","OBJECT_NAME":"STARLINK-2449","TIME_SYSTEM":"UTC","CENTER_NAME":"EARTH","LAUNCH_DATE":"2021-04-07","MEAN_MOTION_DDOT":"0.0000000000000","GP_ID":"224651097","ECCENTRICITY":"0.00011370","MEAN_MOTION":"15.06405483","NORAD_CAT_ID":"48112","REV_AT_EPOCH":"10250","ARG_OF_PERICENTER":"91.6725","TLE_LINE2":"2 48112  53.0518 195.3608 0001137  91.6725 268.4394 15.06405483102504"},{"MEAN_MOTION":"15.06407298","NORAD_CAT_ID":"48113","ECCENTRICITY":"0.00012790","GP_ID":"224651348","LAUNCH_DATE":"2021-04-07","MEAN_MOTION_DDOT":"0.0000000000000","CENTER_NAME":"EARTH","TIME_SYSTEM":"UTC","OBJECT_NAME":"STARLINK-2450","TLE_LINE1":"1 48113U 21027X   23037.78752329  .00001180  00000-0  98090-4 0  9997","OBJECT_ID":"2021-027X","TLE_LINE2":"2 48113  53.0528 190.4820 0001279  98.5136 261.5998 15.06407298102552","ARG_OF_PERICENTER":"98.5136","REV_AT_EPOCH":"10255","DECAY_DATE":null,"MEAN_MOTION_DOT":"0.00001180","FILE":"3776034","ELEMENT_SET_NO":"999","SITE":"AFETR","SEMIMAJOR_AXIS":"6925.326","MEAN_ANOMALY":"261.5998","PERIAPSIS":"546.305","BSTAR":"0.00009809000000","COUNTRY_CODE":"US","PERIOD":"95.592","REF_FRAME":"TEME","APOAPSIS":"548.077","EPHEMERIS_TYPE":"0","INCLINATION":"53.0528","RA_OF_ASC_NODE":"190.4820","MEAN_ELEMENT_THEORY":"SGP4","OBJECT_TYPE":"PAYLOAD","CLASSIFICATION_TYPE":"U","EPOCH":"2023-02-06T18:54:02.012256","RCS_SIZE":"LARGE"},{"DECAY_DATE":null,"MEAN_MOTION_DOT":"0.00001094","FILE":"3776034","SITE":"AFETR","ELEMENT_SET_NO":"999","SEMIMAJOR_AXIS":"6925.324","PERIAPSIS":"546.321","MEAN_ANOMALY":"269.8555","BSTAR":"0.00009228500000","PERIOD":"95.592","COUNTRY_CODE":"US","APOAPSIS":"548.058","REF_FRAME":"TEME","EPHEMERIS_TYPE":"0","INCLINATION":"53.0556","MEAN_ELEMENT_THEORY":"SGP4","RA_OF_ASC_NODE":"185.9469","OBJECT_TYPE":"PAYLOAD","CLASSIFICATION_TYPE":"U","EPOCH":"2023-02-06T16:22:03.900576","RCS_SIZE":"LARGE","NORAD_CAT_ID":"48114","MEAN_MOTION":"15.06407861","GP_ID":"224650096","ECCENTRICITY":"0.00012540","MEAN_MOTION_DDOT":"0.0000000000000","LAUNCH_DATE":"2021-04-07","CENTER_NAME":"EARTH","TIME_SYSTEM":"UTC","OBJECT_NAME":"STARLINK-2451","TLE_LINE1":"1 48114U 21027Y   23037.68198959  .00001094  00000-0  92285-4 0  9994","OBJECT_ID":"2021-027Y","TLE_LINE2":"2 48114  53.0556 185.9469 0001254  90.2578 269.8555 15.06407861102628","ARG_OF_PERICENTER":"90.2578","REV_AT_EPOCH":"10262"},{"EPHEMERIS_TYPE":"0","REF_FRAME":"TEME","APOAPSIS":"548.044","RA_OF_ASC_NODE":"180.5286","MEAN_ELEMENT_THEORY":"SGP4","INCLINATION":"53.0538","OBJECT_TYPE":"PAYLOAD","RCS_SIZE":"LARGE","EPOCH":"2023-02-06T18:38:04.403040","CLASSIFICATION_TYPE":"U","MEAN_MOTION_DOT":"0.00000733","DECAY_DATE":null,"SITE":"AFETR","SEMIMAJOR_AXIS":"6925.308","ELEMENT_SET_NO":"999","FILE":"3776034","BSTAR":"0.00006809100000","MEAN_ANOMALY":"264.0943","PERIAPSIS":"546.301","COUNTRY_CODE":"US","PERIOD":"95.591","TLE_LINE2":"2 48115  53.0538 180.5286 0001258  96.0190 264.0943 15.06413339102709","ARG_OF_PERICENTER":"96.0190","REV_AT_EPOCH":"10270","ECCENTRICITY":"0.00012580","GP_ID":"224650346","MEAN_MOTION":"15.06413339","NORAD_CAT_ID":"48115","TIME_SYSTEM":"UTC","CENTER_NAME":"EARTH","LAUNCH_DATE":"2021-04-07","MEAN_MOTION_DDOT":"0.0000000000000","OBJECT_NAME":"STARLINK-2452","OBJECT_ID":"2021-027Z","TLE_LINE1":"1 48115U 21027Z   23037.77643985  .00000733  00000-0  68091-4 0  9996"},{"ARG_OF_PERICENTER":"103.1110","REV_AT_EPOCH":"10255","TLE_LINE2":"2 48116  53.0552 190.7926 0001196 103.1110 257.0012 15.06407522102552","OBJECT_NAME":"STARLINK-2454","OBJECT_ID":"2021-027AA","TLE_LINE1":"1 48116U 21027AA  23037.71749043  .00001231  00000-0  10151-3 0  9990","GP_ID":"224650597","ECCENTRICITY":"0.00011960","NORAD_CAT_ID":"48116","MEAN_MOTION":"15.06407522","TIME_SYSTEM":"UTC","CENTER_NAME":"EARTH","LAUNCH_DATE":"2021-04-07","MEAN_MOTION_DDOT":"0.0000000000000","OBJECT_TYPE":"PAYLOAD","RCS_SIZE":"LARGE","CLASSIFICATION_TYPE":"U","EPOCH":"2023-02-06T17:13:11.173152","EPHEMERIS_TYPE":"0","APOAPSIS":"548.019","REF_FRAME":"TEME","MEAN_ELEMENT_THEORY":"SGP4","RA_OF_ASC_NODE":"190.7926","INCLINATION":"53.0552","BSTAR":"0.00010151000000","PERIAPSIS":"546.362","MEAN_ANOMALY":"257.0012","PERIOD":"95.592","COUNTRY_CODE":"US","MEAN_MOTION_DOT":"0.00001231","DECAY_DATE":null,"SITE":"AFETR","ELEMENT_SET_NO":"999","SEMIMAJOR_AXIS":"6925.326","FILE":"3776034"},{"INCLINATION":"53.0530","MEAN_ELEMENT_THEORY":"SGP4","RA_OF_ASC_NODE":"170.6225","APOAPSIS":"548.008","REF_FRAME":"TEME","EPHEMERIS_TYPE":"0","CLASSIFICATION_TYPE":"U","EPOCH":"2023-02-06T18:07:33.091104","RCS_SIZE":"LARGE","OBJECT_TYPE":"PAYLOAD","FILE":"3776034","ELEMENT_SET_NO":"999","SITE":"AFETR","SEMIMAJOR_AXIS":"6925.309","DECAY_DATE":null,"MEAN_MOTION_DOT":"0.00001580","PERIOD":"95.591","COUNTRY_CODE":"US","PERIAPSIS":"546.339","MEAN_ANOMALY":"271.8359","BSTAR":"0.00012488000000","TLE_LINE2":"2 48117  53.0530 170.6225 0001205  88.2768 271.8359 15.06413034102846","REV_AT_EPOCH":"10284","ARG_OF_PERICENTER":"88.2768","LAUNCH_DATE":"2021-04-07","MEAN_MOTION_DDOT":"0.0000000000000","CENTER_NAME":"EARTH","TIME_SYSTEM":"UTC","NORAD_CAT_ID":"48117","MEAN_MOTION":"15.06413034","GP_ID":"224650848","ECCENTRICITY":"0.00012050","TLE_LINE1":"1 48117U 21027AB  23037.75524411  .00001580  00000-0  12488-3 0  9997","OBJECT_ID":"2021-027AB","OBJECT_NAME":"STARLINK-2455"},{"FILE":"3775487","SEMIMAJOR_AXIS":"6925.340","SITE":"AFETR","ELEMENT_SET_NO":"999","DECAY_DATE":null,"MEAN_MOTION_DOT":"0.00001249","PERIOD":"95.592","COUNTRY_CODE":"US","PERIAPSIS":"546.322","MEAN_ANOMALY":"273.2627","BSTAR":"0.00010269000000","INCLINATION":"53.0527","MEAN_ELEMENT_THEORY":"SGP4","RA_OF_ASC_NODE":"171.4631","REF_FRAME":"TEME","APOAPSIS":"548.089","EPHEMERIS_TYPE":"0","EPOCH":"2023-02-06T13:38:13.790688","CLASSIFICATION_TYPE":"U","RCS_SIZE":"LARGE","OBJECT_TYPE":"PAYLOAD","MEAN_MOTION_DDOT":"0.0000000000000","LAUNCH_DATE":"2021-04-07","TIME_SYSTEM":"UTC","CENTER_NAME":"EARTH","NORAD_CAT_ID":"48118","MEAN_MOTION":"15.06402693","GP_ID":"224616812","ECCENTRICITY":"0.00012760","TLE_LINE1":"1 48118U 21027AC  23037.56821517  .00001249  00000-0  10269-3 0  9991","OBJECT_ID":"2021-027AC","OBJECT_NAME":"STARLINK-2458","TLE_LINE2":"2 48118  53.0527 171.4631 0001276  86.8508 273.2627 15.06402693102413","REV_AT_EPOCH":"10241","ARG_OF_PERICENTER":"86.8508"},{"OBJECT_NAME":"STARLINK-2459","TLE_LINE1":"1 48119U 21027AD  23037.76261466  .00001387  00000-0  11198-3 0  9990","OBJECT_ID":"2021-027AD","MEAN_MOTION":"15.06411445","NORAD_CAT_ID":"48119","ECCENTRICITY":"0.00012060","GP_ID":"224649846","MEAN_MOTION_DDOT":"0.0000000000000","LAUNCH_DATE":"2021-04-07","TIME_SYSTEM":"UTC","CENTER_NAME":"EARTH","ARG_OF_PERICENTER":"77.5948","REV_AT_EPOCH":"10283","TLE_LINE2":"2 48119  53.0530 170.5863 0001206  77.5948 282.5176 15.06411445102836","MEAN_ANOMALY":"282.5176","PERIAPSIS":"546.343","BSTAR":"0.00011198000000","COUNTRY_CODE":"US","PERIOD":"95.591","DECAY_DATE":null,"MEAN_MOTION_DOT":"0.00001387","FILE":"3776034","SITE":"AFETR","ELEMENT_SET_NO":"999","SEMIMAJOR_AXIS":"6925.313","OBJECT_TYPE":"PAYLOAD","CLASSIFICATION_TYPE":"U","EPOCH":"2023-02-06T18:18:09.906624","RCS_SIZE":"LARGE","APOAPSIS":"548.014","REF_FRAME":"TEME","EPHEMERIS_TYPE":"0","INCLINATION":"53.0530","RA_OF_ASC_NODE":"170.5863","MEAN_ELEMENT_THEORY":"SGP4"},{"DECAY_DATE":null,"MEAN_MOTION_DOT":"0.00001864","FILE":"3776034","SEMIMAJOR_AXIS":"6925.312","SITE":"AFETR","ELEMENT_SET_NO":"999","PERIAPSIS":"546.387","MEAN_ANOMALY":"264.2548","BSTAR":"0.00014397000000","PERIOD":"95.591","COUNTRY_CODE":"US","REF_FRAME":"TEME","APOAPSIS":"547.967","EPHEMERIS_TYPE":"0","INCLINATION":"53.0525","MEAN_ELEMENT_THEORY":"SGP4","RA_OF_ASC_NODE":"190.2718","OBJECT_TYPE":"PAYLOAD","CLASSIFICATION_TYPE":"U","EPOCH":"2023-02-06T20:03:01.597824","RCS_SIZE":"LARGE","NORAD_CAT_ID":"48120","MEAN_MOTION":"15.06411924","GP_ID":"224651098","ECCENTRICITY":"0.00011410","MEAN_MOTION_DDOT":"0.0000000000000","LAUNCH_DATE":"2021-04-07","CENTER_NAME":"EARTH","TIME_SYSTEM":"UTC","OBJECT_NAME":"STARLINK-2460","TLE_LINE1":"1 48120U 21027AE  23037.83543516  .00001864  00000-0  14397-3 0  9993","OBJECT_ID":"2021-027AE","TLE_LINE2":"2 48120  53.0525 190.2718 0001141  95.8571 264.2548 15.06411924102587","ARG_OF_PERICENTER":"95.8571","REV_AT_EPOCH":"10258"}];
